{
    "links": {
        "self": "http://www.neowsapp.com/rest/v1/neo/3843053?api_key=iIulBulltgU6a56xZRHN4H3l9WmuAYTsLGpBGhQ2"
    },
    "id": "3843053",
    "neo_reference_id": "3843053",
    "name": "(2019 MH2)",
    "designation": "2019 MH2",
    "nasa_jpl_url": "http://ssd.jpl.nasa.gov/sbdb.cgi?sstr=3843053",
    "absolute_magnitude_h": 22.2,
    "estimated_diameter": {
        "kilometers": {
            "estimated_diameter_min": 0.096506147,
            "estimated_diameter_max": 0.2157943048
        },
        "meters": {
            "estimated_diameter_min": 96.5061469579,
            "estimated_diameter_max": 215.7943048444
        },
        "miles": {
            "estimated_diameter_min": 0.059966121,
            "estimated_diameter_max": 0.134088323
        },
        "feet": {
            "estimated_diameter_min": 316.6212271853,
            "estimated_diameter_max": 707.9865871058
        }
    },
    "is_potentially_hazardous_asteroid": false,
    "close_approach_data": [
        {
            "close_approach_date": "2019-07-03",
            "close_approach_date_full": "2019-Jul-03 01:31",
            "epoch_date_close_approach": 1562117460000,
            "relative_velocity": {
                "kilometers_per_second": "19.3782907642",
                "kilometers_per_hour": "69761.8467511283",
                "miles_per_hour": "43347.2986104441"
            },
            "miss_distance": {
                "astronomical": "0.2111427242",
                "lunar": "82.1345197138",
                "kilometers": "31586501.806317454",
                "miles": "19626942.1090467052"
            },
            "orbiting_body": "Earth"
        }
    ],
    "orbital_data": {
        "orbit_id": "3",
        "orbit_determination_date": "2019-08-15 05:33:49",
        "first_observation_date": "2019-06-28",
        "last_observation_date": "2019-07-10",
        "data_arc_in_days": 12,
        "observations_used": 36,
        "orbit_uncertainty": "9",
        "minimum_orbit_intersection": ".12915",
        "jupiter_tisserand_invariant": "3.958",
        "epoch_osculation": "2458663.5",
        "eccentricity": ".3959913331571006",
        "semi_major_axis": "1.712021590836816",
        "inclination": "29.33361616484546",
        "ascending_node_longitude": "280.3394056775125",
        "orbital_period": "818.2052898523493",
        "perihelion_distance": "1.034075878687605",
        "perihelion_argument": "52.34900024406611",
        "aphelion_distance": "2.389967302986026",
        "perihelion_time": "2458707.562239323473",
        "mean_anomaly": "340.6131708592195",
        "mean_motion": ".4399873778192811",
        "equinox": "J2000",
        "orbit_class": {
            "orbit_class_type": "AMO",
            "orbit_class_description": "Near-Earth asteroid orbits similar to that of 1221 Amor",
            "orbit_class_range": "1.017 AU < q (perihelion) < 1.3 AU"
        }
    },
    "is_sentry_object": false
}